NORAD_CAT_ID,OBJECT_NAME,OBJECT_TYPE,EPOCH,MEAN_MOTION,ECCENTRICITY,INCLINATION,RA_OF_ASC_NODE,ARG_OF_PERICENTER,MEAN_ANOMALY,BSTAR,MEAN_MOTION_DOT,MEAN_MOTION_DDOT,TLE_LINE0,TLE_LINE1,TLE_LINE2,SEMIMAJOR_AXIS,PERIOD,APOGEE,PERIGEE,DECAYED
54085.0,STARLINK-5166,PAYLOAD,2023-07-14 17:30:39,15.08855991,8.91e-05,53.2186,3.9805,74.428,285.681,6.6126e-05,7.65e-06,0.0,0 STARLINK-5166,1 54085U 22136AL  23195.72962334  .00000765  00000-0  66126-4 0  9995,2 54085  53.2186   3.9805 0000891  74.4280 285.6810 15.08855991 41171,6917.832,95.437,540.313,539.08,0.0
54085.0,STARLINK-5166,PAYLOAD,2023-07-15 10:59:54,15.08847714,7.49e-05,53.2179,0.7105,68.4576,291.6496,-3.5927e-05,-8.59e-06,0.0,0 STARLINK-5166,1 54085U 22136AL  23196.45826493 -.00000859  00000-0 -35927-4 0  9992,2 54085  53.2179   0.7105 0000749  68.4576 291.6496 15.08847714 41287,6917.857,95.437,540.24,539.204,0.0
54085.0,STARLINK-5166,PAYLOAD,2023-07-16 18:47:36,15.08840703,0.0001055,53.2194,354.7603,106.8263,253.2845,-3.4266e-06,-3.42e-06,0.0,0 STARLINK-5166,1 54085U 22136AL  23197.78306513 -.00000342  00000-0 -34266-5 0  9998,2 54085  53.2194 354.7603 0001055 106.8263 253.2845 15.08840703 41485,6917.878,95.438,540.473,539.013,0.0
54085.0,STARLINK-5166,PAYLOAD,2023-07-17 17:03:00,15.08847006,9.23e-05,53.2186,350.5992,82.8087,277.3011,0.0001326,1.824e-05,0.0,0 STARLINK-5166,1 54085U 22136AL  23198.71041846  .00001824  00000-0  13260-3 0  9990,2 54085  53.2186 350.5992 0000923  82.8087 277.3011 15.08847006 41622,6917.859,95.437,540.362,539.085,0.0
54085.0,STARLINK-5166,PAYLOAD,2023-07-18 15:18:24,15.08839101,0.000106,53.2188,346.4348,84.0708,276.0405,9.4883e-05,1.223e-05,0.0,0 STARLINK-5166,1 54085U 22136AL  23199.63778552  .00001223  00000-0  94883-4 0  9997,2 54085  53.2188 346.4348 0001060  84.0708 276.0405 15.08839101 41765,6917.883,95.438,540.481,539.015,0.0
54085.0,STARLINK-5166,PAYLOAD,2023-07-19 08:47:40,15.08835267,0.000168,53.2183,343.163,78.0513,282.0668,-5.0969e-05,-1.099e-05,0.0,0 STARLINK-5166,1 54085U 22136AL  23200.36643630 -.00001099  00000-0 -50969-4 0  9998,2 54085  53.2183 343.1630 0001680  78.0513 282.0668 15.08835267 41872,6917.895,95.438,540.922,538.598,0.0
54085.0,STARLINK-5166,PAYLOAD,2023-07-20 18:10:45,15.08847569,9.99e-05,53.2184,336.9193,93.4642,266.6464,9.8501e-05,1.281e-05,0.0,0 STARLINK-5166,1 54085U 22136AL  23201.75746666  .00001281  00000-0  98501-4 0  9990,2 54085  53.2184 336.9193 0000999  93.4642 266.6464 15.08847569 42087,6917.857,95.437,540.413,539.031,0.0
54085.0,STARLINK-5166,PAYLOAD,2023-07-21 08:29:13,15.08838386,0.0001246,53.2191,334.2452,81.1214,278.9919,0.00021371,3.115e-05,0.0,0 STARLINK-5166,1 54085U 22136AL  23202.35363217  .00003115  00000-0  21371-3 0  9992,2 54085  53.2191 334.2452 0001246  81.1214 278.9919 15.08838386 42177,6917.885,95.438,540.612,538.888,0.0
54085.0,STARLINK-5166,PAYLOAD,2023-07-24 08:01:34,15.08844779,0.0001141,53.2177,320.862,84.2545,275.8578,0.00016948,2.411e-05,0.0,0 STARLINK-5166,1 54085U 22136AL  23205.33442744  .00002411  00000-0  16948-3 0  9998,2 54085  53.2177 320.8620 0001141  84.2545 275.8578 15.08844779 42152,6917.866,95.437,540.52,538.941,0.0
54085.0,STARLINK-5166,PAYLOAD,2023-07-25 11:03:08,15.08839868,0.0001286,53.2162,315.806,104.9811,255.1324,3.4504e-05,2.61e-06,0.0,0 STARLINK-5166,1 54085U 22136AL  23206.46051424  .00000261  00000-0  34504-4 0  9994,2 54085  53.2162 315.8060 0001286 104.9811 255.1324 15.08839868 42797,6917.881,95.438,540.635,538.856,0.0
54085.0,STARLINK-5166,PAYLOAD,2023-07-26 07:43:09,15.08834547,0.0001421,53.2174,311.9422,72.6566,287.4582,0.00010344,1.358e-05,0.0,0 STARLINK-5166,1 54085U 22136AL  23207.32163420  .00001358  00000-0  10344-3 0  9993,2 54085  53.2174 311.9422 0001421  72.6566 287.4582 15.08834547 42454,6917.897,95.438,540.745,538.779,0.0
54085.0,STARLINK-5166,PAYLOAD,2023-07-26 23:36:59,15.08844208,0.0001016,53.2175,308.9687,87.7135,272.3973,0.00016733,2.377e-05,0.0,0 STARLINK-5166,1 54085U 22136AL  23207.98402688  .00002377  00000-0  16733-3 0  9997,2 54085  53.2175 308.9687 0001016  87.7135 272.3973 15.08844208 43029,6917.868,95.437,540.435,539.03,0.0
54085.0,STARLINK-5166,PAYLOAD,2023-07-27 07:33:56,15.08834028,0.0001018,53.2187,307.4832,93.2043,266.9066,9.324e-05,1.196e-05,0.0,0 STARLINK-5166,1 54085U 22136AL  23208.31523557  .00001196  00000-0  93240-4 0  9991,2 54085  53.2187 307.4832 0001018  93.2043 266.9066 15.08834028 43076,6917.899,95.438,540.468,539.059,0.0
54085.0,STARLINK-5166,PAYLOAD,2023-07-27 13:55:28,15.08839122,0.0001093,53.2197,306.2943,91.0157,269.096,0.00010921,1.451e-05,0.0,0 STARLINK-5166,1 54085U 22136AL  23208.58019253  .00001451  00000-0  10921-3 0  9991,2 54085  53.2197 306.2943 0001093  91.0157 269.0960 15.08839122 42641,6917.883,95.438,540.504,538.992,0.0
54085.0,STARLINK-5166,PAYLOAD,2023-07-27 15:30:51,15.08840376,0.0001231,53.2194,305.9966,95.0648,265.0485,7.1828e-05,8.55e-06,0.0,0 STARLINK-5166,1 54085U 22136AL  23208.64643266  .00000855  00000-0  71828-4 0  9996,2 54085  53.2194 305.9966 0001231  95.0648 265.0485 15.08840376 42654,6917.879,95.438,540.596,538.893,0.0
54085.0,STARLINK-5166,PAYLOAD,2023-07-28 05:49:20,15.08829968,0.000122,53.2169,303.3199,88.4766,271.6366,3.8067e-05,3.18e-06,0.0,0 STARLINK-5166,1 54085U 22136AL  23209.24260134  .00000318  00000-0  38067-4 0  9994,2 54085  53.2169 303.3199 0001220  88.4766 271.6366 15.08829968 42746,6917.911,95.438,540.62,538.932,0.0
54085.0,STARLINK-5166,PAYLOAD,2023-07-29 10:26:16,15.08844459,0.0001392,53.2164,297.9667,83.6262,276.4888,7.0291e-05,8.31e-06,0.0,0 STARLINK-5166,1 54085U 22136AL  23210.43491532  .00000831  00000-0  70291-4 0  9990,2 54085  53.2164 297.9667 0001392  83.6262 276.4888 15.08844459 43393,6917.867,95.437,540.695,538.769,0.0
54085.0,STARLINK-5166,PAYLOAD,2023-07-29 12:01:40,15.0882738,0.0002482,53.2197,297.6705,99.686,260.4412,0.0003148,4.724e-05,0.0,0 STARLINK-5166,1 54085U 22136AL  23210.50116157  .00004724  00000-0  31480-3 0  9996,2 54085  53.2197 297.6705 0002482  99.6860 260.4412 15.08827380 43403,6917.919,95.438,541.501,538.067,0.0
54085.0,STARLINK-5166,PAYLOAD,2023-07-30 23:00:09,15.08845549,0.0001331,53.218,291.1283,81.4993,278.615,6.8665e-05,8.05e-06,0.0,0 STARLINK-5166,1 54085U 22136AL  23211.95843926  .00000805  00000-0  68665-4 0  9999,2 54085  53.2180 291.1283 0001331  81.4993 278.6150 15.08845549 43624,6917.863,95.437,540.649,538.808,0.0
54085.0,STARLINK-5166,PAYLOAD,2023-08-01 14:44:47,15.08839761,0.0001232,53.2165,283.6922,96.296,263.8172,2.8834e-05,1.71e-06,0.0,0 STARLINK-5166,1 54085U 22136AL  23213.61444008  .00000171  00000-0  28834-4 0  9992,2 54085  53.2165 283.6922 0001232  96.2960 263.8172 15.08839761 43877,6917.881,95.438,540.598,538.894,0.0
54085.0,STARLINK-5166,PAYLOAD,2023-08-03 03:18:39,15.08837908,0.0001089,53.2162,276.8538,89.4097,270.702,3.9372e-05,3.39e-06,0.0,0 STARLINK-5166,1 54085U 22136AL  23215.13796096  .00000339  00000-0  39372-4 0  9993,2 54085  53.2162 276.8538 0001089  89.4097 270.7020 15.08837908 44103,6917.887,95.438,540.505,538.998,0.0
54085.0,STARLINK-5166,PAYLOAD,2023-08-04 03:09:27,15.08832475,0.0001085,53.2164,272.3936,89.3576,270.7541,2.7419e-05,1.49e-06,0.0,0 STARLINK-5166,1 54085U 22136AL  23216.13156707  .00000149  00000-0  27419-4 0  9991,2 54085  53.2164 272.3936 0001085  89.3576 270.7541 15.08832475 44253,6917.903,95.438,540.519,539.018,0.0
54085.0,STARLINK-5166,PAYLOAD,2023-08-05 10:57:09,15.08844235,0.0001128,53.2157,266.4453,86.8246,273.2875,7.8746e-05,9.66e-06,0.0,0 STARLINK-5166,1 54085U 22136AL  23217.45636251  .00000966  00000-0  78746-4 0  9990,2 54085  53.2157 266.4453 0001128  86.8246 273.2875 15.08844235 44454,6917.867,95.437,540.513,538.952,0.0
54085.0,STARLINK-5166,PAYLOAD,2023-08-06 20:20:15,15.08837201,0.0001068,53.2159,260.1986,115.2364,244.8739,6.2362e-05,7.05e-06,0.0,0 STARLINK-5166,1 54085U 22136AL  23218.84740648  .00000705  00000-0  62362-4 0  9998,2 54085  53.2159 260.1986 0001068 115.2364 244.8739 15.08837201 44660,6917.889,95.438,540.493,539.015,0.0
54085.0,STARLINK-5166,PAYLOAD,2023-08-08 08:54:07,15.08843838,0.0001107,53.2147,253.3611,87.2233,272.8886,5.4779e-05,5.84e-06,0.0,0 STARLINK-5166,1 54085U 22136AL  23220.37092328  .00000584  00000-0  54779-4 0  9992,2 54085  53.2147 253.3611 0001107  87.2233 272.8886 15.08843838 44895,6917.869,95.437,540.499,538.968,0.0
54085.0,STARLINK-5166,PAYLOAD,2023-08-09 08:44:55,15.08833775,0.0001168,53.2158,248.9003,93.301,266.8116,4.9552e-05,5.01e-06,0.0,0 STARLINK-5166,1 54085U 22136AL  23221.36453107  .00000501  00000-0  49552-4 0  9990,2 54085  53.2158 248.9003 0001168  93.3010 266.8116 15.08833775 45046,6917.899,95.438,540.572,538.956,0.0
54085.0,STARLINK-5166,PAYLOAD,2023-08-10 18:08:01,15.08838741,0.0001149,53.2156,242.6548,89.2073,270.9051,1.6948e-05,-1.8e-07,0.0,0 STARLINK-5166,1 54085U 22136AL  23222.75557059 -.00000018  00000-0  16948-4 0  9992,2 54085  53.2156 242.6548 0001149  89.2073 270.9051 15.08838741 45256,6917.884,95.438,540.544,538.954,0.0
54085.0,STARLINK-5166,PAYLOAD,2023-08-12 00:20:21,15.08834883,0.0001192,53.215,237.0047,88.1506,271.9623,4.7221e-05,4.64e-06,0.0,0 STARLINK-5166,1 54085U 22136AL  23224.01413591  .00000464  00000-0  47221-4 0  9997,2 54085  53.2150 237.0047 0001192  88.1506 271.9623 15.08834883 45449,6917.896,95.438,540.586,538.936,0.0
54085.0,STARLINK-5166,PAYLOAD,2023-08-13 08:08:03,15.08839127,0.0001224,53.2156,231.0577,88.3006,271.8126,5.5388e-05,5.94e-06,0.0,0 STARLINK-5166,1 54085U 22136AL  23225.33893394  .00000594  00000-0  55388-4 0  9993,2 54085  53.2156 231.0577 0001224  88.3006 271.8126 15.08839127 45645,6917.883,95.438,540.595,538.901,0.0
54085.0,STARLINK-5166,PAYLOAD,2023-08-14 17:31:09,15.08842532,0.0001194,53.2158,224.8127,88.9216,271.1913,3.5249e-05,2.73e-06,0.0,0 STARLINK-5166,1 54085U 22136AL  23226.72997163  .00000273  00000-0  35249-4 0  9994,2 54085  53.2158 224.8127 0001194  88.9216 271.1913 15.08842532 45857,6917.873,95.437,540.564,538.912,0.0
